[{"OBJECT_NAME":"OBJECT C","OBJECT_ID":"2026-041C","EPOCH":"2026-03-05T22:02:02.507712","MEAN_MOTION":16.02483339,"ECCENTRICITY":0.00010739,"INCLINATION":53.1611,"RA_OF_ASC_NODE":81.6321,"ARG_OF_PERICENTER":5.108,"MEAN_ANOMALY":354.9963,"EPHEMERIS_TYPE":0,"CLASSIFICATION_TYPE":"U","NORAD_CAT_ID":68042,"ELEMENT_SET_NO":999,"REV_AT_EPOCH":61,"BSTAR":-0.00063170678,"MEAN_MOTION_DOT":-0.0038751,"MEAN_MOTION_DDOT":6.5414542e-5},{"OBJECT_NAME":"OBJECT D","OBJECT_ID":"2026-041D","EPOCH":"2026-03-06T01:01:20.150112","MEAN_MOTION":16.02476877,"ECCENTRICITY":0.00044181,"INCLINATION":53.1613,"RA_OF_ASC_NODE":80.9854,"ARG_OF_PERICENTER":132.2054,"MEAN_ANOMALY":227.9354,"EPHEMERIS_TYPE":0,"CLASSIFICATION_TYPE":"U","NORAD_CAT_ID":68043,"ELEMENT_SET_NO":999,"REV_AT_EPOCH":63,"BSTAR":-0.00022338494,"MEAN_MOTION_DOT":-0.00139554,"MEAN_MOTION_DDOT":1.8460905e-5},{"OBJECT_NAME":"OBJECT E","OBJECT_ID":"2026-041E","EPOCH":"2026-03-05T20:31:31.899648","MEAN_MOTION":16.03609466,"ECCENTRICITY":0.00035364,"INCLINATION":53.1609,"RA_OF_ASC_NODE":81.9515,"ARG_OF_PERICENTER":207.654,"MEAN_ANOMALY":152.4305,"EPHEMERIS_TYPE":0,"CLASSIFICATION_TYPE":"U","NORAD_CAT_ID":68044,"ELEMENT_SET_NO":999,"REV_AT_EPOCH":60,"BSTAR":0.001411359,"MEAN_MOTION_DOT":0.00908973,"MEAN_MOTION_DDOT":0.00042950555},{"OBJECT_NAME":"OBJECT F","OBJECT_ID":"2026-041F","EPOCH":"2026-03-06T01:01:07.209984","MEAN_MOTION":16.02522584,"ECCENTRICITY":0.00018576,"INCLINATION":53.1608,"RA_OF_ASC_NODE":80.9848,"ARG_OF_PERICENTER":135.3042,"MEAN_ANOMALY":224.814,"EPHEMERIS_TYPE":0,"CLASSIFICATION_TYPE":"U","NORAD_CAT_ID":68045,"ELEMENT_SET_NO":999,"REV_AT_EPOCH":63,"BSTAR":-0.00058722856,"MEAN_MOTION_DOT":-0.00361398,"MEAN_MOTION_DDOT":5.8561658e-5},{"OBJECT_NAME":"OBJECT G","OBJECT_ID":"2026-041G","EPOCH":"2026-03-06T01:00:31.347072","MEAN_MOTION":16.0305757,"ECCENTRICITY":3.938e-5,"INCLINATION":53.1607,"RA_OF_ASC_NODE":80.9818,"ARG_OF_PERICENTER":123.5853,"MEAN_ANOMALY":236.5217,"EPHEMERIS_TYPE":0,"CLASSIFICATION_TYPE":"U","NORAD_CAT_ID":68046,"ELEMENT_SET_NO":999,"REV_AT_EPOCH":63,"BSTAR":6.3654936e-5,"MEAN_MOTION_DOT":0.00036466,"MEAN_MOTION_DDOT":1.200713e-5},{"OBJECT_NAME":"OBJECT H","OBJECT_ID":"2026-041H","EPOCH":"2026-03-05T22:01:08.112864","MEAN_MOTION":16.03005981,"ECCENTRICITY":0.00025048,"INCLINATION":53.1613,"RA_OF_ASC_NODE":81.628,"ARG_OF_PERICENTER":341.9342,"MEAN_ANOMALY":18.1601,"EPHEMERIS_TYPE":0,"CLASSIFICATION_TYPE":"U","NORAD_CAT_ID":68047,"ELEMENT_SET_NO":999,"REV_AT_EPOCH":61,"BSTAR":-0.00055577852,"MEAN_MOTION_DOT":-0.00352182,"MEAN_MOTION_DDOT":5.6519344e-5},{"OBJECT_NAME":"OBJECT J","OBJECT_ID":"2026-041J","EPOCH":"2026-03-05T20:30:58.980384","MEAN_MOTION":16.03695095,"ECCENTRICITY":0.00019306,"INCLINATION":53.1609,"RA_OF_ASC_NODE":81.949,"ARG_OF_PERICENTER":216.4713,"MEAN_ANOMALY":143.6188,"EPHEMERIS_TYPE":0,"CLASSIFICATION_TYPE":"U","NORAD_CAT_ID":68048,"ELEMENT_SET_NO":999,"REV_AT_EPOCH":60,"BSTAR":0.00058630161,"MEAN_MOTION_DOT":0.0037944,"MEAN_MOTION_DDOT":7.5728556e-5},{"OBJECT_NAME":"OBJECT K","OBJECT_ID":"2026-041K","EPOCH":"2026-03-06T00:59:54.939840","MEAN_MOTION":16.03284822,"ECCENTRICITY":0.00011213,"INCLINATION":53.1606,"RA_OF_ASC_NODE":80.9788,"ARG_OF_PERICENTER":111.7318,"MEAN_ANOMALY":248.3834,"EPHEMERIS_TYPE":0,"CLASSIFICATION_TYPE":"U","NORAD_CAT_ID":68049,"ELEMENT_SET_NO":999,"REV_AT_EPOCH":63,"BSTAR":-0.00041587733,"MEAN_MOTION_DOT":-0.00268809,"MEAN_MOTION_DDOT":3.8022398e-5},{"OBJECT_NAME":"OBJECT L","OBJECT_ID":"2026-041L","EPOCH":"2026-03-06T01:00:07.797888","MEAN_MOTION":16.03140488,"ECCENTRICITY":7.477e-5,"INCLINATION":53.1607,"RA_OF_ASC_NODE":80.9796,"ARG_OF_PERICENTER":123.3618,"MEAN_ANOMALY":236.7486,"EPHEMERIS_TYPE":0,"CLASSIFICATION_TYPE":"U","NORAD_CAT_ID":68050,"ELEMENT_SET_NO":999,"REV_AT_EPOCH":63,"BSTAR":-0.00045942945,"MEAN_MOTION_DOT":-0.00294029,"MEAN_MOTION_DDOT":4.3115782e-5},{"OBJECT_NAME":"OBJECT M","OBJECT_ID":"2026-041M","EPOCH":"2026-03-06T00:59:41.609184","MEAN_MOTION":16.03403245,"ECCENTRICITY":7.758e-5,"INCLINATION":53.1606,"RA_OF_ASC_NODE":80.9777,"ARG_OF_PERICENTER":102.2522,"MEAN_ANOMALY":257.8597,"EPHEMERIS_TYPE":0,"CLASSIFICATION_TYPE":"U","NORAD_CAT_ID":68051,"ELEMENT_SET_NO":999,"REV_AT_EPOCH":63,"BSTAR":-0.00045294916,"MEAN_MOTION_DOT":-0.00294472,"MEAN_MOTION_DDOT":4.3323052e-5},{"OBJECT_NAME":"OBJECT N","OBJECT_ID":"2026-041N","EPOCH":"2026-03-06T00:59:29.614272","MEAN_MOTION":16.03503394,"ECCENTRICITY":0.00017528,"INCLINATION":53.1608,"RA_OF_ASC_NODE":80.9771,"ARG_OF_PERICENTER":134.1273,"MEAN_ANOMALY":225.9904,"EPHEMERIS_TYPE":0,"CLASSIFICATION_TYPE":"U","NORAD_CAT_ID":68052,"ELEMENT_SET_NO":999,"REV_AT_EPOCH":63,"BSTAR":-0.0004801718,"MEAN_MOTION_DOT":-0.00313842,"MEAN_MOTION_DDOT":4.7633571e-5},{"OBJECT_NAME":"OBJECT P","OBJECT_ID":"2026-041P","EPOCH":"2026-03-06T00:59:16.691424","MEAN_MOTION":16.03627286,"ECCENTRICITY":0.0001531,"INCLINATION":53.1609,"RA_OF_ASC_NODE":80.976,"ARG_OF_PERICENTER":134.277,"MEAN_ANOMALY":225.8388,"EPHEMERIS_TYPE":0,"CLASSIFICATION_TYPE":"U","NORAD_CAT_ID":68053,"ELEMENT_SET_NO":999,"REV_AT_EPOCH":63,"BSTAR":-0.00043492457,"MEAN_MOTION_DOT":-0.00286719,"MEAN_MOTION_DDOT":4.1779914e-5},{"OBJECT_NAME":"OBJECT Q","OBJECT_ID":"2026-041Q","EPOCH":"2026-03-05T21:59:23.618976","MEAN_MOTION":16.04306352,"ECCENTRICITY":0.00039813,"INCLINATION":53.1613,"RA_OF_ASC_NODE":81.6202,"ARG_OF_PERICENTER":185.7535,"MEAN_ANOMALY":174.3453,"EPHEMERIS_TYPE":0,"CLASSIFICATION_TYPE":"U","NORAD_CAT_ID":68054,"ELEMENT_SET_NO":999,"REV_AT_EPOCH":61,"BSTAR":0.00019704536,"MEAN_MOTION_DOT":0.00130205,"MEAN_MOTION_DDOT":1.8871136e-5},{"OBJECT_NAME":"OBJECT R","OBJECT_ID":"2026-041R","EPOCH":"2026-03-06T00:59:05.484480","MEAN_MOTION":16.03749796,"ECCENTRICITY":8.925e-5,"INCLINATION":53.1607,"RA_OF_ASC_NODE":80.9748,"ARG_OF_PERICENTER":123.1638,"MEAN_ANOMALY":236.9481,"EPHEMERIS_TYPE":0,"CLASSIFICATION_TYPE":"U","NORAD_CAT_ID":68055,"ELEMENT_SET_NO":999,"REV_AT_EPOCH":63,"BSTAR":-0.00044522906,"MEAN_MOTION_DOT":-0.00295535,"MEAN_MOTION_DDOT":4.3701815e-5},{"OBJECT_NAME":"OBJECT S","OBJECT_ID":"2026-041S","EPOCH":"2026-03-05T23:28:57.295488","MEAN_MOTION":16.04013847,"ECCENTRICITY":0.00034266,"INCLINATION":53.1613,"RA_OF_ASC_NODE":81.2963,"ARG_OF_PERICENTER":344.2338,"MEAN_ANOMALY":15.8587,"EPHEMERIS_TYPE":0,"CLASSIFICATION_TYPE":"U","NORAD_CAT_ID":68056,"ELEMENT_SET_NO":999,"REV_AT_EPOCH":62,"BSTAR":-0.00045641803,"MEAN_MOTION_DOT":-0.00307885,"MEAN_MOTION_DDOT":4.6532979e-5},{"OBJECT_NAME":"OBJECT T","OBJECT_ID":"2026-041T","EPOCH":"2026-03-05T23:28:46.424640","MEAN_MOTION":16.04134131,"ECCENTRICITY":0.00041292,"INCLINATION":53.1613,"RA_OF_ASC_NODE":81.2955,"ARG_OF_PERICENTER":349.7622,"MEAN_ANOMALY":10.3326,"EPHEMERIS_TYPE":0,"CLASSIFICATION_TYPE":"U","NORAD_CAT_ID":68057,"ELEMENT_SET_NO":999,"REV_AT_EPOCH":62,"BSTAR":-0.00050559879,"MEAN_MOTION_DOT":-0.00343211,"MEAN_MOTION_DDOT":5.4941963e-5}]
