STARLINK-36925          
1 68042U 26041C   26064.91808458 -.00387510  65415-4 -63171-3 0  9996
2 68042  53.1611  81.6321 0001073   5.1080 354.9963 16.02483339   610
STARLINK-36902          
1 68043U 26041D   26065.04259433 -.00139554  18461-4 -22338-3 0  9997
2 68043  53.1613  80.9854 0004418 132.2054 227.9354 16.02476877   639
STARLINK-36966          
1 68044U 26041E   26064.85523032  .00908973  42951-3  14114-2 0  9994
2 68044  53.1609  81.9515 0003536 207.6540 152.4305 16.03609466   605
STARLINK-36864          
1 68045U 26041F   26065.04244456 -.00361398  58562-4 -58723-3 0  9994
2 68045  53.1608  80.9848 0001857 135.3042 224.8140 16.02522584   639
STARLINK-36321          
1 68046U 26041G   26065.04202948  .00036466  12007-4  63655-4 0  9993
2 68046  53.1607  80.9818 0000393 123.5853 236.5217 16.03057570   633
STARLINK-36181          
1 68047U 26041H   26064.91745501 -.00352182  56519-4 -55578-3 0  9994
2 68047  53.1613  81.6280 0002504 341.9342  18.1601 16.03005981   615
STARLINK-36318          
1 68048U 26041J   26064.85484931  .00379440  75729-4  58630-3 0  9995
2 68048  53.1609  81.9490 0001930 216.4713 143.6188 16.03695095   601
STARLINK-36885          
1 68049U 26041K   26065.04160810 -.00268809  38022-4 -41588-3 0  9992
2 68049  53.1606  80.9788 0001121 111.7318 248.3834 16.03284822   634
STARLINK-36945          
1 68050U 26041L   26065.04175692 -.00294029  43116-4 -45943-3 0  9990
2 68050  53.1607  80.9796 0000747 123.3618 236.7486 16.03140488   634
STARLINK-35911          
1 68051U 26041M   26065.04145381 -.00294472  43323-4 -45295-3 0  9995
2 68051  53.1606  80.9777 0000775 102.2522 257.8597 16.03403245   634
STARLINK-35808          
1 68052U 26041N   26065.04131498 -.00313842  47634-4 -48017-3 0  9997
2 68052  53.1608  80.9771 0001752 134.1273 225.9904 16.03503394   638
STARLINK-36919          
1 68053U 26041P   26065.04116541 -.00286719  41780-4 -43492-3 0  9990
2 68053  53.1609  80.9760 0001531 134.2770 225.8388 16.03627286   638
STARLINK-36924          
1 68054U 26041Q   26064.91624559  .00130205  18871-4  19705-3 0  9990
2 68054  53.1613  81.6202 0003981 185.7535 174.3453 16.04306352   612
STARLINK-35998          
1 68055U 26041R   26065.04103570 -.00295535  43702-4 -44523-3 0  9998
2 68055  53.1607  80.9748 0000892 123.1638 236.9481 16.03749796   631
STARLINK-36845          
1 68056U 26041S   26064.97844092 -.00307885  46533-4 -45642-3 0  9991
2 68056  53.1613  81.2963 0003426 344.2338  15.8587 16.04013847   623
STARLINK-36954          
1 68057U 26041T   26064.97831510 -.00343211  54942-4 -50560-3 0  9994
2 68057  53.1613  81.2955 0004129 349.7622  10.3326 16.04134131   623
